[{"OBJECT_NAME":"STARLINK-1478","OBJECT_ID":"2020-038AB","EPOCH":"2026-03-09T15:11:59.368128","MEAN_MOTION":15.55038308,"ECCENTRICITY":0.0003392,"INCLINATION":53.0519,"RA_OF_ASC_NODE":198.1629,"ARG_OF_PERICENTER":240.0104,"MEAN_ANOMALY":120.057,"EPHEMERIS_TYPE":0,"CLASSIFICATION_TYPE":"U","NORAD_CAT_ID":45755,"ELEMENT_SET_NO":999,"REV_AT_EPOCH":31672,"BSTAR":0.0016531,"MEAN_MOTION_DOT":0.00114162,"MEAN_MOTION_DDOT":0},{"OBJECT_NAME":"COSMOS 2251 DEB","OBJECT_ID":"1993-036AMV","EPOCH":"2026-03-09T05:38:06.550656","MEAN_MOTION":15.39543317,"ECCENTRICITY":0.00779257,"INCLINATION":73.9961,"RA_OF_ASC_NODE":355.5603,"ARG_OF_PERICENTER":37.2584,"MEAN_ANOMALY":111.9555,"EPHEMERIS_TYPE":0,"CLASSIFICATION_TYPE":"U","NORAD_CAT_ID":35602,"ELEMENT_SET_NO":999,"REV_AT_EPOCH":91420,"BSTAR":0.00072859847,"MEAN_MOTION_DOT":0.00031956,"MEAN_MOTION_DDOT":0}]
